start=new Date('2023-06-24T00:00:00.000Z').valueOf();
sats=[{"OBJECT_NAME":"STARLINK-4685","ECCENTRICITY":"0.00007840","TIME_SYSTEM":"UTC","SITE":"AFETR","COUNTRY_CODE":"US","DECAY_DATE":null,"CENTER_NAME":"EARTH","OBJECT_TYPE":"PAYLOAD","BSTAR":"0.00038555000000","PERIOD":"95.438","MEAN_ANOMALY":"254.3099","REV_AT_EPOCH":"4445","ELEMENT_SET_NO":"999","SEMIMAJOR_AXIS":"6917.883","INCLINATION":"53.2176","MEAN_MOTION":"15.08839298","EPOCH":"2023-06-22T20:08:56.377824","RCS_SIZE":"LARGE","TLE_LINE1":"1 53709U 22107K   23173.83954141  .00005853  00000-0  38555-3 0  9997","MEAN_ELEMENT_THEORY":"SGP4","EPHEMERIS_TYPE":"0","CLASSIFICATION_TYPE":"U","NORAD_CAT_ID":"53709","MEAN_MOTION_DOT":"0.00005853","RA_OF_ASC_NODE":"16.9105","ARG_OF_PERICENTER":"105.7979","OBJECT_ID":"2022-107K","MEAN_MOTION_DDOT":"0.0000000000000","TLE_LINE2":"2 53709  53.2176  16.9105 0000784 105.7979 254.3099 15.08839298 44451","APOAPSIS":"540.290","FILE":"3940196","PERIAPSIS":"539.205","LAUNCH_DATE":"2022-09-05","GP_ID":"234464050","REF_FRAME":"TEME"},{"RCS_SIZE":"LARGE","CLASSIFICATION_TYPE":"U","EPHEMERIS_TYPE":"0","TLE_LINE1":"1 53711U 22107M   23174.77795009  .00000509  00000-0  50016-4 0  9990","MEAN_ELEMENT_THEORY":"SGP4","EPOCH":"2023-06-23T18:40:14.887776","RA_OF_ASC_NODE":"12.8090","ARG_OF_PERICENTER":"89.8319","NORAD_CAT_ID":"53711","MEAN_MOTION_DOT":"0.00000509","MEAN_MOTION_DDOT":"0.0000000000000","OBJECT_ID":"2022-107M","FILE":"3941042","APOAPSIS":"540.306","TLE_LINE2":"2 53711  53.2178  12.8090 0000831  89.8319 270.2768 15.08844791 44596","REF_FRAME":"TEME","LAUNCH_DATE":"2022-09-05","PERIAPSIS":"539.156","GP_ID":"234511456","SITE":"AFETR","ECCENTRICITY":"0.00008310","OBJECT_NAME":"STARLINK-4627","TIME_SYSTEM":"UTC","COUNTRY_CODE":"US","CENTER_NAME":"EARTH","DECAY_DATE":null,"OBJECT_TYPE":"PAYLOAD","BSTAR":"0.00005001600000","SEMIMAJOR_AXIS":"6917.866","ELEMENT_SET_NO":"999","INCLINATION":"53.2178","MEAN_MOTION":"15.08844791","PERIOD":"95.437","MEAN_ANOMALY":"270.2768","REV_AT_EPOCH":"4459"},{"LAUNCH_DATE":"2022-09-05","PERIAPSIS":"539.041","GP_ID":"234464042","REF_FRAME":"TEME","MEAN_MOTION_DDOT":"0.0000000000000","OBJECT_ID":"2022-107N","APOAPSIS":"540.462","FILE":"3940196","TLE_LINE2":"2 53712  53.2181  16.9482 0001027  87.1558 272.9552 15.08837959 44458","MEAN_MOTION_DOT":"0.00000488","NORAD_CAT_ID":"53712","ARG_OF_PERICENTER":"87.1558","RA_OF_ASC_NODE":"16.9482","EPOCH":"2023-06-22T20:15:37.310976","RCS_SIZE":"LARGE","CLASSIFICATION_TYPE":"U","TLE_LINE1":"1 53712U 22107N   23173.84418184  .00000488  00000-0  48770-4 0  9994","MEAN_ELEMENT_THEORY":"SGP4","EPHEMERIS_TYPE":"0","MEAN_ANOMALY":"272.9552","PERIOD":"95.438","REV_AT_EPOCH":"4445","INCLINATION":"53.2181","SEMIMAJOR_AXIS":"6917.887","ELEMENT_SET_NO":"999","MEAN_MOTION":"15.08837959","OBJECT_TYPE":"PAYLOAD","BSTAR":"0.00004877000000","COUNTRY_CODE":"US","CENTER_NAME":"EARTH","DECAY_DATE":null,"ECCENTRICITY":"0.00010270","OBJECT_NAME":"STARLINK-4683","TIME_SYSTEM":"UTC","SITE":"AFETR"},{"TIME_SYSTEM":"UTC","OBJECT_NAME":"STARLINK-4698","ECCENTRICITY":"0.00010120","SITE":"AFETR","DECAY_DATE":null,"CENTER_NAME":"EARTH","COUNTRY_CODE":"US","BSTAR":"0.00009465300000","OBJECT_TYPE":"PAYLOAD","REV_AT_EPOCH":"4438","MEAN_ANOMALY":"263.5049","PERIOD":"95.438","SEMIMAJOR_AXIS":"6917.885","ELEMENT_SET_NO":"999","MEAN_MOTION":"15.08838343","INCLINATION":"53.2175","EPOCH":"2023-06-22T20:00:18.526464","TLE_LINE1":"1 53713U 22107P   23173.83354776  .00001219  00000-0  94653-4 0  9994","MEAN_ELEMENT_THEORY":"SGP4","EPHEMERIS_TYPE":"0","CLASSIFICATION_TYPE":"U","RCS_SIZE":"LARGE","MEAN_MOTION_DOT":"0.00001219","NORAD_CAT_ID":"53713","RA_OF_ASC_NODE":"21.8426","ARG_OF_PERICENTER":"96.6058","TLE_LINE2":"2 53713  53.2175  21.8426 0001012  96.6058 263.5049 15.08838343 44386","APOAPSIS":"540.451","FILE":"3940196","OBJECT_ID":"2022-107P","MEAN_MOTION_DDOT":"0.0000000000000","GP_ID":"234464054","LAUNCH_DATE":"2022-09-05","PERIAPSIS":"539.050","REF_FRAME":"TEME"},{"RA_OF_ASC_NODE":"352.8082","ARG_OF_PERICENTER":"77.5487","MEAN_MOTION_DOT":"0.00002374","NORAD_CAT_ID":"53714","CLASSIFICATION_TYPE":"U","EPHEMERIS_TYPE":"0","TLE_LINE1":"1 53714U 22107Q   23174.77242713  .00002374  00000-0  16716-3 0  9992","MEAN_ELEMENT_THEORY":"SGP4","RCS_SIZE":"LARGE","EPOCH":"2023-06-23T18:32:17.704032","REF_FRAME":"TEME","GP_ID":"234511449","PERIAPSIS":"539.292","LAUNCH_DATE":"2022-09-05","APOAPSIS":"540.149","FILE":"3941042","TLE_LINE2":"2 53714  53.2173 352.8082 0000620  77.5487 282.5575 15.08848125 44876","MEAN_MOTION_DDOT":"0.0000000000000","OBJECT_ID":"2022-107Q","CENTER_NAME":"EARTH","DECAY_DATE":null,"COUNTRY_CODE":"US","SITE":"AFETR","TIME_SYSTEM":"UTC","ECCENTRICITY":"0.00006200","OBJECT_NAME":"STARLINK-4688","MEAN_MOTION":"15.08848125","SEMIMAJOR_AXIS":"6917.856","ELEMENT_SET_NO":"999","INCLINATION":"53.2173","REV_AT_EPOCH":"4487","PERIOD":"95.437","MEAN_ANOMALY":"282.5575","BSTAR":"0.00016716000000","OBJECT_TYPE":"PAYLOAD"},{"MEAN_MOTION":"15.08843597","SEMIMAJOR_AXIS":"6917.869","ELEMENT_SET_NO":"999","INCLINATION":"53.2172","PERIOD":"95.437","MEAN_ANOMALY":"265.7414","REV_AT_EPOCH":"4439","OBJECT_TYPE":"PAYLOAD","BSTAR":"0.00009190900000","COUNTRY_CODE":"US","DECAY_DATE":null,"CENTER_NAME":"EARTH","SITE":"AFETR","OBJECT_NAME":"STARLINK-4686","ECCENTRICITY":"0.00010190","TIME_SYSTEM":"UTC","REF_FRAME":"TEME","PERIAPSIS":"539.029","LAUNCH_DATE":"2022-09-05","GP_ID":"234497559","OBJECT_ID":"2022-107R","MEAN_MOTION_DDOT":"0.0000000000000","TLE_LINE2":"2 53715  53.2172  21.3175 0001019  94.3694 265.7414 15.08843597 44397","APOAPSIS":"540.439","FILE":"3940456","ARG_OF_PERICENTER":"94.3694","RA_OF_ASC_NODE":"21.3175","MEAN_MOTION_DOT":"0.00001175","NORAD_CAT_ID":"53715","RCS_SIZE":"LARGE","MEAN_ELEMENT_THEORY":"SGP4","TLE_LINE1":"1 53715U 22107R   23173.97708057  .00001175  00000-0  91909-4 0  9998","EPHEMERIS_TYPE":"0","CLASSIFICATION_TYPE":"U","EPOCH":"2023-06-22T23:26:59.761248"},{"LAUNCH_DATE":"2022-09-05","PERIAPSIS":"539.200","GP_ID":"234464043","REF_FRAME":"TEME","OBJECT_ID":"2022-107S","MEAN_MOTION_DDOT":"0.0000000000000","TLE_LINE2":"2 53716  53.2168  21.8861 0000792  96.6003 263.5079 15.08839130 44375","APOAPSIS":"540.296","FILE":"3940196","MEAN_MOTION_DOT":"0.00002873","NORAD_CAT_ID":"53716","ARG_OF_PERICENTER":"96.6003","RA_OF_ASC_NODE":"21.8861","EPOCH":"2023-06-22T20:10:55.330752","RCS_SIZE":"LARGE","TLE_LINE1":"1 53716U 22107S   23173.84091818  .00002873  00000-0  19850-3 0  9995","EPHEMERIS_TYPE":"0","MEAN_ELEMENT_THEORY":"SGP4","CLASSIFICATION_TYPE":"U","MEAN_ANOMALY":"263.5079","PERIOD":"95.438","REV_AT_EPOCH":"4437","ELEMENT_SET_NO":"999","SEMIMAJOR_AXIS":"6917.883","MEAN_MOTION":"15.08839130","INCLINATION":"53.2168","OBJECT_TYPE":"PAYLOAD","BSTAR":"0.00019850000000","COUNTRY_CODE":"US","DECAY_DATE":null,"CENTER_NAME":"EARTH","OBJECT_NAME":"STARLINK-4699","ECCENTRICITY":"0.00007920","TIME_SYSTEM":"UTC","SITE":"AFETR"},{"NORAD_CAT_ID":"53718","MEAN_MOTION_DOT":"0.00001631","RA_OF_ASC_NODE":"21.8662","ARG_OF_PERICENTER":"83.1404","EPOCH":"2023-06-22T20:05:37.150656","TLE_LINE1":"1 53718U 22107U   23173.83723554  .00001631  00000-0  12057-3 0  9998","MEAN_ELEMENT_THEORY":"SGP4","EPHEMERIS_TYPE":"0","CLASSIFICATION_TYPE":"U","RCS_SIZE":"LARGE","GP_ID":"234464060","PERIAPSIS":"539.113","LAUNCH_DATE":"2022-09-05","REF_FRAME":"TEME","TLE_LINE2":"2 53718  53.2158  21.8662 0000930  83.1404 276.9693 15.08836331 44375","FILE":"3940197","APOAPSIS":"540.400","OBJECT_ID":"2022-107U","MEAN_MOTION_DDOT":"0.0000000000000","DECAY_DATE":null,"CENTER_NAME":"EARTH","COUNTRY_CODE":"US","TIME_SYSTEM":"UTC","OBJECT_NAME":"STARLINK-4695","ECCENTRICITY":"0.00009300","SITE":"AFETR","REV_AT_EPOCH":"4437","PERIOD":"95.438","MEAN_ANOMALY":"276.9693","SEMIMAJOR_AXIS":"6917.892","ELEMENT_SET_NO":"999","MEAN_MOTION":"15.08836331","INCLINATION":"53.2158","BSTAR":"0.00012057000000","OBJECT_TYPE":"PAYLOAD"},{"EPOCH":"2023-06-23T18:36:59.060448","RCS_SIZE":"LARGE","TLE_LINE1":"1 53719U 22107V   23174.77568357  .00003491  00000-0  23724-3 0  9990","MEAN_ELEMENT_THEORY":"SGP4","EPHEMERIS_TYPE":"0","CLASSIFICATION_TYPE":"U","NORAD_CAT_ID":"53719","MEAN_MOTION_DOT":"0.00003491","ARG_OF_PERICENTER":"90.0128","RA_OF_ASC_NODE":"347.8043","OBJECT_ID":"2022-107V","MEAN_MOTION_DDOT":"0.0000000000000","TLE_LINE2":"2 53719  53.2179 347.8043 0000981  90.0128 270.0976 15.08849321 44922","APOAPSIS":"540.396","FILE":"3940946","LAUNCH_DATE":"2022-09-05","PERIAPSIS":"539.038","GP_ID":"234508799","REF_FRAME":"TEME","OBJECT_NAME":"STARLINK-4644","ECCENTRICITY":"0.00009810","TIME_SYSTEM":"UTC","SITE":"AFETR","COUNTRY_CODE":"US","DECAY_DATE":null,"CENTER_NAME":"EARTH","OBJECT_TYPE":"PAYLOAD","BSTAR":"0.00023724000000","PERIOD":"95.437","MEAN_ANOMALY":"270.0976","REV_AT_EPOCH":"4492","INCLINATION":"53.2179","SEMIMAJOR_AXIS":"6917.852","ELEMENT_SET_NO":"999","MEAN_MOTION":"15.08849321"},{"RA_OF_ASC_NODE":"19.8518","ARG_OF_PERICENTER":"97.3292","MEAN_MOTION_DOT":"-0.00000307","NORAD_CAT_ID":"53720","MEAN_ELEMENT_THEORY":"SGP4","TLE_LINE1":"1 53720U 22107W   23174.31196261 -.00000307  00000-0 -12007-5 0  9992","EPHEMERIS_TYPE":"0","CLASSIFICATION_TYPE":"U","RCS_SIZE":"LARGE","EPOCH":"2023-06-23T07:29:13.569504","REF_FRAME":"TEME","GP_ID":"234504330","LAUNCH_DATE":"2022-09-05","PERIAPSIS":"539.084","TLE_LINE2":"2 53720  53.2179  19.8518 0000944  97.3292 262.7808 15.08842774 44442","APOAPSIS":"540.390","FILE":"3940738","OBJECT_ID":"2022-107W","MEAN_MOTION_DDOT":"0.0000000000000","DECAY_DATE":null,"CENTER_NAME":"EARTH","COUNTRY_CODE":"US","SITE":"AFETR","TIME_SYSTEM":"UTC","OBJECT_NAME":"STARLINK-4642","ECCENTRICITY":"0.00009440","SEMIMAJOR_AXIS":"6917.872","MEAN_MOTION":"15.08842774","ELEMENT_SET_NO":"999","INCLINATION":"53.2179","REV_AT_EPOCH":"4444","MEAN_ANOMALY":"262.7808","PERIOD":"95.437","BSTAR":"-0.00000120070000","OBJECT_TYPE":"PAYLOAD"}];
